CTC2_L_00168001-01
1 11156U 24010QH  26037.47791667  .00000000  00000+0  00000-0 0  9995
2 11156  65.0000   0.0000 0000000   0.0000   0.0000 14.89338779    17
CTC2_L_00168001-02
1 11157U 26508IR  26037.47791667  .00000000  00000+0  00000-0 0  9990
2 11157  65.0000   0.0000 0000000   0.0000  90.0000 14.89338779    17
CTC2_L_00168001-03
1 11158U 24622YK  26037.47791667  .00000000  00000+0  00000-0 0  9996
2 11158  65.0000   0.0000 0000000   0.0000 180.0000 14.89338779    18
CTC2_L_00168001-04
1 11159U 24213UP  26037.47791667  .00000000  00000+0  00000-0 0  9993
2 11159  65.0000   0.0000 0000000   0.0000 270.0000 14.89338779    19
CTC2_L_00168002-01
1 11160U 25326KB  26037.47791667  .00000000  00000+0  00000-0 0  9991
2 11160  65.0000  12.0000 0000000   0.0000  12.0000 14.89338779    18
CTC2_L_00168002-02
1 11161U 25867SX  26037.47791667  .00000000  00000+0  00000-0 0  9992
2 11161  65.0000  12.0000 0000000   0.0000 102.0000 14.89338779    19
CTC2_L_00168002-03
1 11162U 22599M   26037.47791667  .00000000  00000+0  00000-0 0  9992
2 11162  65.0000  12.0000 0000000   0.0000 192.0000 14.89338779    19
CTC2_L_00168002-04
1 11163U 26851EB  26037.47791667  .00000000  00000+0  00000-0 0  9998
2 11163  65.0000  12.0000 0000000   0.0000 282.0000 14.89338779    10
CTC2_L_00168003-01
1 11164U 25156GF  26037.47791667  .00000000  00000+0  00000-0 0  9996
2 11164  65.0000  24.0000 0000000   0.0000  24.0000 14.89338779    18
CTC2_L_00168003-02
1 11165U 23211VF  26037.47791667  .00000000  00000+0  00000-0 0  9997
2 11165  65.0000  24.0000 0000000   0.0000 114.0000 14.89338779    19
CTC2_L_00168003-03
1 11166U 26243JQ  26037.47791667  .00000000  00000+0  00000-0 0  9996
2 11166  65.0000  24.0000 0000000   0.0000 204.0000 14.89338779    10
CTC2_L_00168003-04
1 11167U 26961YP  26037.47791667  .00000000  00000+0  00000-0 0  9994
2 11167  65.0000  24.0000 0000000   0.0000 294.0000 14.89338779    10
CTC2_L_00168004-01
1 11168U 24293CG  26037.47791667  .00000000  00000+0  00000-0 0  9991
2 11168  65.0000  36.0000 0000000   0.0000  36.0000 14.89338779    18
CTC2_L_00168004-02
1 11169U 26270NK  26037.47791667  .00000000  00000+0  00000-0 0  9999
2 11169  65.0000  36.0000 0000000   0.0000 126.0000 14.89338779    19
CTC2_L_00168004-03
1 11170U 26181KM  26037.47791667  .00000000  00000+0  00000-0 0  9992
2 11170  65.0000  36.0000 0000000   0.0000 216.0000 14.89338779    11
CTC2_L_00168004-04
1 11171U 22509GU  26037.47791667  .00000000  00000+0  00000-0 0  9993
2 11171  65.0000  36.0000 0000000   0.0000 306.0000 14.89338779    12
CTC2_L_00168005-01
1 11172U 22588IX  26037.47791667  .00000000  00000+0  00000-0 0  9991
2 11172  65.0000  48.0000 0000000   0.0000  48.0000 14.89338779    19
CTC2_L_00168005-02
1 11173U 23138LF  26037.47791667  .00000000  00000+0  00000-0 0  9994
2 11173  65.0000  48.0000 0000000   0.0000 138.0000 14.89338779    10
CTC2_L_00168005-03
1 11174U 24138DH  26037.47791667  .00000000  00000+0  00000-0 0  9996
2 11174  65.0000  48.0000 0000000   0.0000 228.0000 14.89338779    11
CTC2_L_00168005-04
1 11175U 26944ZB  26037.47791667  .00000000  00000+0  00000-0 0  9994
2 11175  65.0000  48.0000 0000000   0.0000 318.0000 14.89338779    12
CTC2_L_00168006-01
1 11176U 26503ET  26037.47791667  .00000000  00000+0  00000-0 0  9996
2 11176  65.0000  60.0000 0000000   0.0000  60.0000 14.89338779    11
CTC2_L_00168006-02
1 11177U 26697XE  26037.47791667  .00000000  00000+0  00000-0 0  9991
2 11177  65.0000  60.0000 0000000   0.0000 150.0000 14.89338779    12
CTC2_L_00168006-03
1 11178U 22063KG  26037.47791667  .00000000  00000+0  00000-0 0  9995
2 11178  65.0000  60.0000 0000000   0.0000 240.0000 14.89338779    13
CTC2_L_00168006-04
1 11179U 24852IX  26037.47791667  .00000000  00000+0  00000-0 0  9994
2 11179  65.0000  60.0000 0000000   0.0000 330.0000 14.89338779    14
CTC2_L_00168007-01
1 11180U 22521F   26037.47791667  .00000000  00000+0  00000-0 0  9997
2 11180  65.0000  72.0000 0000000   0.0000  72.0000 14.89338779    12
CTC2_L_00168007-02
1 11181U 25063OX  26037.47791667  .00000000  00000+0  00000-0 0  9992
2 11181  65.0000  72.0000 0000000   0.0000 162.0000 14.89338779    13
CTC2_L_00168007-03
1 11182U 25250OM  26037.47791667  .00000000  00000+0  00000-0 0  9991
2 11182  65.0000  72.0000 0000000   0.0000 252.0000 14.89338779    14
CTC2_L_00168007-04
1 11183U 25106MJ  26037.47791667  .00000000  00000+0  00000-0 0  9992
2 11183  65.0000  72.0000 0000000   0.0000 342.0000 14.89338779    15
CTC2_L_00168008-01
1 11184U 23972PN  26037.47791667  .00000000  00000+0  00000-0 0  9992
2 11184  65.0000  84.0000 0000000   0.0000  84.0000 14.89338779    12
CTC2_L_00168008-02
1 11185U 23027GZ  26037.47791667  .00000000  00000+0  00000-0 0  9994
2 11185  65.0000  84.0000 0000000   0.0000 174.0000 14.89338779    13
CTC2_L_00168008-03
1 11186U 23233GD  26037.47791667  .00000000  00000+0  00000-0 0  9994
2 11186  65.0000  84.0000 0000000   0.0000 264.0000 14.89338779    14
CTC2_L_00168008-04
1 11187U 26657ZX  26037.47791667  .00000000  00000+0  00000-0 0  9998
2 11187  65.0000  84.0000 0000000   0.0000 354.0000 14.89338779    15
CTC2_L_00168009-01
1 11188U 24210HZ  26037.47791667  .00000000  00000+0  00000-0 0  9992
2 11188  65.0000  96.0000 0000000   0.0000  96.0000 14.89338779    12
CTC2_L_00168009-02
1 11189U 24932XF  26037.47791667  .00000000  00000+0  00000-0 0  9994
2 11189  65.0000  96.0000 0000000   0.0000 186.0000 14.89338779    13
CTC2_L_00168009-03
1 11190U 22226FG  26037.47791667  .00000000  00000+0  00000-0 0  9990
2 11190  65.0000  96.0000 0000000   0.0000 276.0000 14.89338779    15
CTC2_L_00168009-04
1 11191U 24610DS  26037.47791667  .00000000  00000+0  00000-0 0  9990
2 11191  65.0000  96.0000 0000000   0.0000   6.0000 14.89338779    17
CTC2_L_00168010-01
1 11192U 22852BV  26037.47791667  .00000000  00000+0  00000-0 0  9997
2 11192  65.0000 108.0000 0000000   0.0000 108.0000 14.89338779    15
CTC2_L_00168010-02
1 11193U 23743VC  26037.47791667  .00000000  00000+0  00000-0 0  9998
2 11193  65.0000 108.0000 0000000   0.0000 198.0000 14.89338779    15
CTC2_L_00168010-03
1 11194U 26161TD  26037.47791667  .00000000  00000+0  00000-0 0  9996
2 11194  65.0000 108.0000 0000000   0.0000 288.0000 14.89338779    16
CTC2_L_00168010-04
1 11195U 24745JT  26037.47791667  .00000000  00000+0  00000-0 0  9993
2 11195  65.0000 108.0000 0000000   0.0000  18.0000 14.89338779    18
CTC2_L_00168011-01
1 11196U 26869IP  26037.47791667  .00000000  00000+0  00000-0 0  9993
2 11196  65.0000 120.0000 0000000   0.0000 120.0000 14.89338779    17
CTC2_L_00168011-02
1 11197U 26631DL  26037.47791667  .00000000  00000+0  00000-0 0  9991
2 11197  65.0000 120.0000 0000000   0.0000 210.0000 14.89338779    18
CTC2_L_00168011-03
1 11198U 24093PS  26037.47791667  .00000000  00000+0  00000-0 0  9992
2 11198  65.0000 120.0000 0000000   0.0000 300.0000 14.89338779    19
CTC2_L_00168011-04
1 11199U 26947CJ  26037.47791667  .00000000  00000+0  00000-0 0  9993
2 11199  65.0000 120.0000 0000000   0.0000  30.0000 14.89338779    10
CTC2_L_00168012-01
1 11200U 23310KQ  26037.47791667  .00000000  00000+0  00000-0 0  9997
2 11200  65.0000 132.0000 0000000   0.0000 132.0000 14.89338779    19
CTC2_L_00168012-02
1 11201U 25338WE  26037.47791667  .00000000  00000+0  00000-0 0  9990
2 11201  65.0000 132.0000 0000000   0.0000 222.0000 14.89338779    10
CTC2_L_00168012-03
1 11202U 26867TZ  26037.47791667  .00000000  00000+0  00000-0 0  9999
2 11202  65.0000 132.0000 0000000   0.0000 312.0000 14.89338779    11
CTC2_L_00168012-04
1 11203U 26224MK  26037.47791667  .00000000  00000+0  00000-0 0  9997
2 11203  65.0000 132.0000 0000000   0.0000  42.0000 14.89338779    12
CTC2_L_00168013-01
1 11204U 24110UN  26037.47791667  .00000000  00000+0  00000-0 0  9990
2 11204  65.0000 144.0000 0000000   0.0000 144.0000 14.89338779    19
CTC2_L_00168013-02
1 11205U 23713BH  26037.47791667  .00000000  00000+0  00000-0 0  9999
2 11205  65.0000 144.0000 0000000   0.0000 234.0000 14.89338779    10
CTC2_L_00168013-03
1 11206U 25595ME  26037.47791667  .00000000  00000+0  00000-0 0  9990
2 11206  65.0000 144.0000 0000000   0.0000 324.0000 14.89338779    11
CTC2_L_00168013-04
1 11207U 23282LH  26037.47791667  .00000000  00000+0  00000-0 0  9992
2 11207  65.0000 144.0000 0000000   0.0000  54.0000 14.89338779    12
CTC2_L_00168014-01
1 11208U 26926DD  26037.47791667  .00000000  00000+0  00000-0 0  9991
2 11208  65.0000 156.0000 0000000   0.0000 156.0000 14.89338779    19
CTC2_L_00168014-02
1 11209U 23999YB  26037.47791667  .00000000  00000+0  00000-0 0  9999
2 11209  65.0000 156.0000 0000000   0.0000 246.0000 14.89338779    10
CTC2_L_00168014-03
1 11210U 26427JF  26037.47791667  .00000000  00000+0  00000-0 0  9990
2 11210  65.0000 156.0000 0000000   0.0000 336.0000 14.89338779    12
CTC2_L_00168014-04
1 11211U 23710FT  26037.47791667  .00000000  00000+0  00000-0 0  9993
2 11211  65.0000 156.0000 0000000   0.0000  66.0000 14.89338779    13
CTC2_L_00168015-01
1 11212U 23409ZI  26037.47791667  .00000000  00000+0  00000-0 0  9999
2 11212  65.0000 168.0000 0000000   0.0000 168.0000 14.89338779    10
CTC2_L_00168015-02
1 11213U 22790VG  26037.47791667  .00000000  00000+0  00000-0 0  9992
2 11213  65.0000 168.0000 0000000   0.0000 258.0000 14.89338779    11
CTC2_L_00168015-03
1 11214U 24253TR  26037.47791667  .00000000  00000+0  00000-0 0  9999
2 11214  65.0000 168.0000 0000000   0.0000 348.0000 14.89338779    12
CTC2_L_00168015-04
1 11215U 26203FT  26037.47791667  .00000000  00000+0  00000-0 0  9997
2 11215  65.0000 168.0000 0000000   0.0000  78.0000 14.89338779    13
CTC2_L_00168016-01
1 11216U 22958UM  26037.47791667  .00000000  00000+0  00000-0 0  9991
2 11216  65.0000 180.0000 0000000   0.0000 180.0000 14.89338779    12
CTC2_L_00168016-02
1 11217U 26835LC  26037.47791667  .00000000  00000+0  00000-0 0  9990
2 11217  65.0000 180.0000 0000000   0.0000 270.0000 14.89338779    13
